GLOBALSTAR M075         
1 37192U 10054E   24344.93844110 -.00000089  00000+0  81513-4 0  9998
2 37192  51.9968  37.7573 0000410 109.2824  63.2509 12.62269902651944
GLOBALSTAR M073         
1 37193U 10054F   24344.91021431 -.00000091  00000+0  69400-4 0  9994
2 37193  52.0073 311.5174 0000352  32.5900  11.7656 12.62273686653938
GLOBALSTAR M083         
1 37739U 11033A   24344.84991682 -.00000082  00000+0  12305-3 0  9995
2 37739  51.9860 260.6923 0000694  76.4235 353.6060 12.62269139622941
GLOBALSTAR M088         
1 37740U 11033B   24344.91927667 -.00000074  00000+0  16796-3 0  9996
2 37740  51.9703 166.1300 0001105  99.8457  46.1291 12.62266396618498
GLOBALSTAR M091         
1 37741U 11033C   24344.85540214 -.00000075  00000+0  16062-3 0  9996
2 37741  51.9978 129.5416 0001148 120.5708  33.8683 12.62271656619272
GLOBALSTAR M085         
1 37742U 11033D   24344.76610704 -.00000090  00000+0  77698-4 0  9999
2 37742  51.9875  81.0176 0000904 133.3564  36.2910 12.62270006619778
GLOBALSTAR M081         
1 37743U 11033E   24344.86471965 -.00000099  00000+0  28739-4 0  9996
2 37743  51.9964  83.3872 0000642 143.8072 354.2850 12.62273927619934
GLOBALSTAR M089         
1 37744U 11033F   24344.91180922 -.00000083  00000+0  11842-3 0  9992
2 37744  51.9950  37.5101 0000199  82.2865  88.9597 12.62273162620784
